OBJECT_NAME,OBJECT_ID,EPOCH,MEAN_MOTION,ECCENTRICITY,INCLINATION,RA_OF_ASC_NODE,ARG_OF_PERICENTER,MEAN_ANOMALY,EPHEMERIS_TYPE,CLASSIFICATION_TYPE,NORAD_CAT_ID,ELEMENT_SET_NO,REV_AT_EPOCH,BSTAR,MEAN_MOTION_DOT,MEAN_MOTION_DDOT
COSMO-SKYMED 1,2007-023A,2026-07-01T04:05:30.305760,14.97171680,.0001488,97.8855,14.1444,83.8219,276.3172,0,U,31598,999,3188,.19165E-3,.2155E-4,0
COSMOS 2428,2007-029A,2026-07-01T02:10:18.723072,14.12928549,.0007126,70.9377,325.2846,108.4089,251.7808,0,U,31792,999,98011,.53086E-4,.51E-6,0
SL-16 R/B,2007-029B,2026-07-01T01:25:10.292160,14.14853338,.0002434,70.9767,294.0681,262.1172,270.3188,0,U,31793,999,98140,-.1085E-3,-.257E-5,0
KORONAS-FOTON,2009-003A,2026-06-30T23:53:50.944128,15.46006589,.0012611,82.4290,157.8514,105.0055,255.2590,0,U,33504,999,96323,.24413E-3,.11985E-3,0
CZ-2C R/B,2011-030B,2026-07-01T03:32:23.097120,14.81505676,.0051842,97.8661,137.2822,342.7391,27.5795,0,U,37731,999,80689,.1723E-3,.1327E-4,0
H-2A R/B,2012-025E,2026-07-01T04:55:28.900704,14.95783873,.0042565,98.4826,158.5066,302.1044,57.6046,0,U,38341,999,76518,.28989E-3,.3222E-4,0
SHIJIAN-16 (SJ-16),2013-057A,2026-07-01T04:20:36.430944,14.92634001,.001639,74.9732,330.1769,198.2648,161.7954,0,U,39358,999,68843,.20577E-3,.2096E-4,0
SL-4 R/B,2014-021B,2026-07-01T03:01:58.760256,15.42225051,.0090526,51.6047,142.4691,156.8175,203.6933,0,U,39679,999,67376,.23458E-3,.11435E-3,0
ALOS-2,2014-029A,2026-06-30T20:50:50.445024,14.79474729,.0001598,97.9232,278.8362,87.5110,272.6284,0,U,39766,999,65360,.10488E-3,.732E-5,0
YAOGAN-29,2015-069A,2026-07-01T05:04:01.024608,14.83094660,.0001843,98.0020,210.8656,31.8636,328.2688,0,U,41038,999,57270,-.10131E-4,-.137E-5,0
ASTRO-H (HITOMI),2016-012A,2026-06-30T18:41:24.661824,15.10572596,.00096344,31.0005,346.4066,29.3738,330.7441,0,U,41337,999,56934,.16084436E-3,.2818E-4,0
HXMT (HUIYAN),2017-034A,2026-07-01T05:03:10.876320,15.18578607,.0032616,43.0145,104.9492,235.5911,124.1853,0,U,42758,999,49979,.23367E-3,.4744E-4,0
SAOCOM 1A,2018-076A,2026-07-01T04:16:40.268640,14.82156729,.0001554,97.8878,8.7229,78.9880,281.1507,0,U,43641,999,41817,-.26181E-4,-.261E-5,0
H-2A R/B,2018-084L,2026-07-01T02:44:00.150432,15.45694937,.0021844,98.8556,64.0514,352.2263,7.8640,0,U,43682,999,42327,.53708E-3,.26101E-3,0
SAOCOM 1B,2020-059A,2026-07-01T03:24:23.052672,14.82148798,.0001584,97.8881,7.7827,81.9293,278.2100,0,U,46265,999,31555,.64757E-4,.463E-5,0
CSS (TIANHE),2021-035A,2026-07-01T02:45:59.695200,15.61398699,.0008757,41.4677,237.2035,190.5766,169.4890,0,U,48274,999,29534,.24568E-3,.21315E-3,0
COSMOS 2550,2021-056A,2026-07-01T04:10:42.632256,15.33861501,.0008363,67.1433,57.5967,269.0588,90.9608,0,U,48865,999,28086,.35698E-3,.11582E-3,0
CZ-2C R/B,2022-058K,2026-06-30T22:18:20.452896,15.62816234,.0031547,50.1859,91.9633,324.0587,35.8265,0,U,52794,999,22779,.44924E-3,.42061E-3,0
CZ-2C R/B,2022-132E,2026-06-30T00:12:48.480480,15.73080866,.0013156,97.2890,188.6182,42.7723,317.4562,0,U,54039,999,20796,.51238168E-3,.70629E-3,0
GSLV R/B,2022-138AN,2026-06-30T19:38:37.529088,14.97321086,.0024152,87.3816,128.4071,98.9323,261.4644,0,U,54149,999,20085,.20862161E-3,.2462E-4,0
XRISM,2023-137A,2026-06-30T22:00:37.033056,15.12582544,.0007716,31.0022,270.6602,102.3924,257.7578,0,U,57800,999,15494,.27455E-3,.5011E-4,0
ACS3,2024-077B,2026-07-01T01:18:07.797888,13.94597477,.0105264,97.1701,97.7590,51.5816,309.4745,0,U,59588,999,10997,.14967E-1,.20966E-3,0
CZ-8A R/B,2025-231K,2026-07-01T03:59:56.989248,14.30158717,.0116489,50.0054,339.8417,273.2183,85.5411,0,U,66004,999,3694,.56342E-4,-.5E-7,0
SZ-21 MODULE,2025-246C,2026-06-30T12:21:40.428864,15.77532205,.0004988,41.4700,224.2498,103.9916,256.1484,0,U,66515,999,3584,.24276765E-3,.41495E-3,0
