{"format":"tle-catalog-v1","generatedAt":"2026-07-01T14:19:31.438Z","count":19018,"entries":[{"name":"ACS3","line1":"1 59588U 24077B   26182.05425692  .00020966  00000+0  14967-1 0  9997","line2":"2 59588  97.1701  97.7590 0105264  51.5816 309.4745 13.94597477109977"},{"name":"ALOS-2","line1":"1 39766U 14029A   26181.86863941  .00000732  00000+0  10488-3 0  9995","line2":"2 39766  97.9232 278.8362 0001598  87.5110 272.6284 14.79474729653601"},{"name":"ASTRO-H (HITOMI)","line1":"1 41337U 16012A   26181.77875766  .00002818  00000+0  16084-3 0  9999","line2":"2 41337  31.0005 346.4066 0009634  29.3738 330.7441 15.10572596569342"},{"name":"COSMO-SKYMED 1","line1":"1 31598U 07023A   26182.17048965  .00002155  00000+0  19165-3 0  9994","line2":"2 31598  97.8855  14.1444 0001488  83.8219 276.3172 14.97171680 31882"},{"name":"COSMOS 2428","line1":"1 31792U 07029A   26182.09049448  .00000051  00000+0  53086-4 0  9998","line2":"2 31792  70.9377 325.2846 0007126 108.4089 251.7808 14.12928549980118"},{"name":"COSMOS 2550","line1":"1 48865U 21056A   26182.17410454  .00011582  00000+0  35698-3 0  9990","line2":"2 48865  67.1433  57.5967 0008363 269.0588  90.9608 15.33861501280863"},{"name":"CSS (TIANHE)","line1":"1 48274U 21035A   26182.11527425  .00021315  00000+0  24568-3 0  9991","line2":"2 48274  41.4677 237.2035 0008757 190.5766 169.4890 15.61398699295346"},{"name":"CZ-2C R/B","line1":"1 37731U 11030B   26182.14748955  .00001327  00000+0  17230-3 0  9996","line2":"2 37731  97.8661 137.2822 0051842 342.7391  27.5795 14.81505676806893"},{"name":"CZ-2C R/B","line1":"1 52794U 22058K   26181.92940339  .00042061  00000+0  44924-3 0  9999","line2":"2 52794  50.1859  91.9633 0031547 324.0587  35.8265 15.62816234227791"},{"name":"CZ-2C R/B","line1":"1 54039U 22132E   26181.00889445  .00070629  00000+0  51238-3 0  9992","line2":"2 54039  97.2890 188.6182 0013156  42.7723 317.4562 15.73080866207969"},{"name":"CZ-8A R/B","line1":"1 66004U 25231K   26182.16663182 -.00000005  00000+0  56342-4 0  9990","line2":"2 66004  50.0054 339.8417 0116489 273.2183  85.5411 14.30158717 36945"},{"name":"GSLV R/B","line1":"1 54149U 22138AN  26181.81848992  .00002462  00000+0  20862-3 0  9990","line2":"2 54149  87.3816 128.4071 0024152  98.9323 261.4644 14.97321086200852"},{"name":"H-2A R/B","line1":"1 38341U 12025E   26182.20519561  .00003222  00000+0  28989-3 0  9994","line2":"2 38341  98.4826 158.5066 0042565 302.1044  57.6046 14.95783873765185"},{"name":"H-2A R/B","line1":"1 43682U 18084L   26182.11389063  .00026101  00000+0  53708-3 0  9999","line2":"2 43682  98.8556  64.0514 0021844 352.2263   7.8640 15.45694937423274"},{"name":"HXMT (HUIYAN)","line1":"1 42758U 17034A   26182.21054255  .00004744  00000+0  23367-3 0  9996","line2":"2 42758  43.0145 104.9492 0032616 235.5911 124.1853 15.18578607499798"},{"name":"KORONAS-FOTON","line1":"1 33504U 09003A   26181.99572852  .00011985  00000+0  24413-3 0  9992","line2":"2 33504  82.4290 157.8514 0012611 105.0055 255.2590 15.46006589963235"},{"name":"SAOCOM 1A","line1":"1 43641U 18076A   26182.17824385 -.00000261  00000+0 -26181-4 0  9999","line2":"2 43641  97.8878   8.7229 0001554  78.9880 281.1507 14.82156729418170"},{"name":"SAOCOM 1B","line1":"1 46265U 20059A   26182.14193348  .00000463  00000+0  64757-4 0  9996","line2":"2 46265  97.8881   7.7827 0001584  81.9293 278.2100 14.82148798315558"},{"name":"SHIJIAN-16 (SJ-16)","line1":"1 39358U 13057A   26182.18097721  .00002096  00000+0  20577-3 0  9998","line2":"2 39358  74.9732 330.1769 0016390 198.2648 161.7954 14.92634001688430"},{"name":"SL-16 R/B","line1":"1 31793U 07029B   26182.05914690 -.00000257  00000+0 -10850-3 0  9996","line2":"2 31793  70.9767 294.0681 0002434 262.1172 270.3188 14.14853338981406"},{"name":"SL-4 R/B","line1":"1 39679U 14021B   26182.12637454  .00011435  00000+0  23458-3 0  9991","line2":"2 39679  51.6047 142.4691 0090526 156.8175 203.6933 15.42225051673763"},{"name":"SZ-21 MODULE","line1":"1 66515U 25246C   26181.51505126  .00041495  00000+0  24277-3 0  9992","line2":"2 66515  41.4700 224.2498 0004988 103.9916 256.1484 15.77532205 35847"},{"name":"XRISM","line1":"1 57800U 23137A   26181.91709529  .00005011  00000+0  27455-3 0  9998","line2":"2 57800  31.0022 270.6602 0007716 102.3924 257.7578 15.12582544154946"},{"name":"YAOGAN-29","line1":"1 41038U 15069A   26182.21112297 -.00000137  00000+0 -10131-4 0  9993","line2":"2 41038  98.0020 210.8656 0001843  31.8636 328.2688 14.83094660572707"}]}